{
  "type": "Feature",
  "id": 7248458,
  "properties": {
    "area": 2311.12,
    "osm": {
      "ISO3166-2": "UM-67",
      "alt_name:en": "Kalama Atoll",
      "boundary": "region",
      "name": "Johnston Atoll",
      "name:af": "Johnston-atol",
      "name:ar": "جزيرة جونستون المرجانية",
      "name:az": "Conston rifi",
      "name:be": "Атол Джонстан",
      "name:bs": "Atol Johnston",
      "name:ca": "Atol Johnston",
      "name:cs": "Johnstonův atol",
      "name:de": "Johnston-Atoll",
      "name:el": "Ατόλλη Τζόνστον",
      "name:eo": "Jonstonatolo",
      "name:es": "Atolón Johnston",
      "name:et": "Johnstoni atoll",
      "name:eu": "Johnston atoloia",
      "name:fa": "آب‌سنگ جانستون",
      "name:fi": "Johnstonin atolli",
      "name:fr": "Atoll Johnston",
      "name:gl": "Atol Johnston",
      "name:he": "אטול ג'ונסטון",
      "name:hr": "Atol Johnston",
      "name:hu": "Johnston-atoll",
      "name:id": "Atol Johnston",
      "name:io": "Atolo Johnston",
      "name:is": "Johnstoneyja",
      "name:it": "Atollo Johnston",
      "name:ja": "ジョンストン島",
      "name:jv": "Atol Johnston",
      "name:ka": "ჯონსტონი",
      "name:ko": "존스턴 환초",
      "name:kw": "Enesik Johnston",
      "name:li": "Johnston-atol",
      "name:lt": "Džonstono atolas",
      "name:lv": "Džonstona atols",
      "name:mk": "Џонстонов Атол",
      "name:ml": "ജോൺസ്റ്റൺ അറ്റോൾ",
      "name:ms": "Atol Johnston",
      "name:nl": "Johnston",
      "name:pl": "Johnston",
      "name:pt": "Atol Johnston",
      "name:ro": "Atolul Johnston",
      "name:ru": "Джонстон",
      "name:sk": "Johnston",
      "name:sl": "Johnstonov atol",
      "name:sr": "Атол Џонстон",
      "name:su": "Atol Johnston",
      "name:sv": "Johnstonatollen",
      "name:ta": "ஜான்ஸ்டன் பவளத்தீவு",
      "name:th": "จอห์นสตันอะทอลล์",
      "name:tr": "Johnston Atolü",
      "name:uk": "Джонстон",
      "name:ur": "جزیرہ جانسٹن",
      "name:vi": "Đảo Johnston",
      "name:zh": "约翰斯顿环礁",
      "timezone": "Pacific/Honolulu",
      "type": "boundary",
      "wikidata": "Q131008",
      "wikipedia": "en:Johnston Atoll"
    },
    "wiki": {
      "name": "Johnston Atoll",
      "wikidataId": "Q131008",
      "osmRelationId": "7248458",
      "country": "United States of America",
      "wikipedia": "Johnston_Atoll"
    }
  },
  "geometry": {
    "type": "Polygon",
    "coordinates": [
      [
        [-169.5990993, 16.9537694],
        [-169.6394833, 16.9301038],
        [-169.6759258, 16.901166],
        [-169.7076816, 16.8675455],
        [-169.7341012, 16.8299275],
        [-169.7518278, 16.7995434],
        [-169.7640107, 16.7667489],
        [-169.7703086, 16.732462],
        [-169.7705448, 16.6976432],
        [-169.7647128, 16.6632684],
        [-169.752976, 16.6303015],
        [-169.7356634, 16.5996675],
        [-169.7132602, 16.5722262],
        [-169.6863942, 16.5487482],
        [-169.6558186, 16.5298932],
        [-169.6223901, 16.5161911],
        [-169.5870458, 16.5080269],
        [-169.5507762, 16.5056303],
        [-169.5145978, 16.5090685],
        [-169.4795247, 16.518245],
        [-169.4753187, 16.5198515],
        [-169.4413117, 16.5236249],
        [-169.4083397, 16.5324541],
        [-169.3772154, 16.5461207],
        [-169.3487058, 16.564287],
        [-169.3235136, 16.586504],
        [-169.3022597, 16.6122228],
        [-169.2854678, 16.6408084],
        [-169.2735519, 16.6715552],
        [-169.2668055, 16.7037044],
        [-169.2564364, 16.7381434],
        [-169.2522753, 16.7737567],
        [-169.2544412, 16.8095255],
        [-169.2628721, 16.8444269],
        [-169.2773269, 16.8774633],
        [-169.2973922, 16.907691],
        [-169.3224941, 16.9342471],
        [-169.3519146, 16.9563736],
        [-169.3848122, 16.9734393],
        [-169.4202461, 16.9849577],
        [-169.4572027, 16.9906002],
        [-169.494625, 16.990206],
        [-169.5314426, 16.9837864],
        [-169.5666026, 16.9715243],
        [-169.5990993, 16.9537694]
      ]
    ]
  }
}